     2.100          NAVIGATION                              RINEX VERSION / TYPE
fic2rin                                 07/16/2012 00:30:58 PGM / RUN BY / DATE
                                                            END OF HEADER
30 12  7 15 20  0  0.0 -.300257001072D-03 -.243289832724D-10  .000000000000D+00
     .630000000000D+02 -.104625000000D+03  .449411576939D-08  .200817560816D+01
    -.559538602829D-05  .112170072971D-01  .537559390068D-05  .515368662262D+04
     .720000000000D+05  .132247805595D-06  .198219797935D+01 -.156462192535D-06
     .960373591895D+00  .276250000000D+03  .158079289807D+01 -.795568852922D-08
    -.135362781260D-09  .100000000000D+01  .169700000000D+04  .000000000000D+00
     .685000000000D+01  .000000000000D+00 -.419095158577D-08  .630000000000D+02
     .648060000000D+05  .400000000000D+01
31 12  7 15 20  0  0.0  .260479748249D-03  .284217094304D-11  .000000000000D+00
     .600000000000D+02  .129687500000D+02  .428910722996D-08 -.689863688003D+00
     .385567545891D-06  .774625746999D-02  .187195837498D-05  .515368629456D+04
     .720000000000D+05 -.558793544769D-07  .105419691103D+01 -.819563865662D-07
     .980791134299D+00  .353281250000D+03 -.859460101312D+00 -.828355932921D-08
     .188579283656D-09  .100000000000D+01  .169700000000D+04  .000000000000D+00
     .240000000000D+01  .000000000000D+00 -.130385160446D-07  .600000000000D+02
     .648060000000D+05  .400000000000D+01
32 12  7 15 20  0  0.0 -.465503893793D-03 -.432009983342D-11  .000000000000D+00
     .790000000000D+02  .143125000000D+02  .463019286612D-08 -.118333967348D+00
     .640749931335D-06  .118002921809D-01  .923685729504D-05  .515363102341D+04
     .720000000000D+05  .152736902237D-06 -.971394391618D+00 -.203028321266D-06
     .951095891247D+00  .200343750000D+03 -.554943658717D+00 -.809176562595D-08
    -.490734726785D-09  .100000000000D+01  .169700000000D+04  .000000000000D+00
     .240000000000D+01  .000000000000D+00 -.279396772385D-08  .790000000000D+02
     .648060000000D+05  .400000000000D+01
 1 12  7 15 19 59 44.0  .265680253506D-03  .159161572810D-11  .000000000000D+00
     .100000000000D+01 -.303125000000D+01  .487163149443D-08 -.135285890469D+00
    -.340864062309D-06  .915659242310D-03  .552460551262D-05  .515363796806D+04
     .719840000000D+05 -.745058059692D-08 -.210954351182D+01  .428408384323D-07
     .959801811827D+00  .270468750000D+03  .254151125295D+00 -.811176645906D-08
    -.125005206969D-09  .100000000000D+01  .169700000000D+04  .000000000000D+00
     .240000000000D+01  .000000000000D+00  .838190317154D-08  .100000000000D+01
     .685260000000D+05  .400000000000D+01
27 12  7 15 19 59 44.0  .409554224461D-03  .409272615798D-11  .000000000000D+00
     .180000000000D+02  .275312500000D+02  .420410368922D-08  .160499532407D+01
     .109337270260D-05  .217332381289D-01  .858679413795D-06  .515371080589D+04
     .719840000000D+05  .439584255219D-06  .998673897565D+00 -.540167093277D-07
     .981928681842D+00  .371093750000D+03 -.106064541150D+01 -.800961934708D-08
     .414302971667D-10  .100000000000D+01  .169700000000D+04  .000000000000D+00
     .240000000000D+01  .000000000000D+00 -.419095158577D-08  .180000000000D+02
     .698760000000D+05  .400000000000D+01
 1 12  7 15 21 59 44.0  .265691429377D-03  .159161572810D-11  .000000000000D+00
     .300000000000D+01  .293750000000D+01  .498627912711D-08  .914558685669D+00
     .279396772385D-06  .916475895792D-03  .531412661076D-05  .515363963890D+04
     .791840000000D+05  .558793544769D-07 -.210960272928D+01 -.670552253723D-07
     .959800752674D+00  .272250000000D+03  .254512009630D+00 -.821177062464D-08
    -.575023952056D-10  .100000000000D+01  .169700000000D+04  .000000000000D+00
     .240000000000D+01  .000000000000D+00  .838190317154D-08  .300000000000D+01
     .720060000000D+05  .400000000000D+01
27 12  7 15 21 59 44.0  .409583561122D-03  .409272615798D-11  .000000000000D+00
     .240000000000D+02  .289062500000D+02  .418874590665D-08  .265514942881D+01
     .130198895931D-05  .217335227644D-01  .705942511559D-06  .515371058846D+04
     .791840000000D+05  .307336449623D-06  .998617073438D+00  .160187482834D-06
     .981928835449D+00  .374843750000D+03 -.106064412413D+01 -.791818696713D-08
     .100004165575D-10  .100000000000D+01  .169700000000D+04  .000000000000D+00
     .240000000000D+01  .000000000000D+00 -.419095158577D-08  .240000000000D+02
     .720060000000D+05  .400000000000D+01
 2 12  7 15 22  0  0.0  .396911054850D-03  .113686837722D-11  .000000000000D+00
     .660000000000D+02  .381250000000D+01  .543094050619D-08  .178214385008D+01
     .266358256340D-06  .113298014039D-01  .582076609135D-05  .515371614075D+04
     .792000000000D+05 -.167638063431D-06 -.212441309541D+01  .193715095520D-06
     .938349761051D+00  .259312500000D+03 -.275892436667D+01 -.840070706603D-08
    -.110718897601D-09  .100000000000D+01  .169700000000D+04  .000000000000D+00
     .240000000000D+01  .000000000000D+00 -.172294676304D-07  .660000000000D+02
     .720060000000D+05  .400000000000D+01
 3 12  7 15 22  0  0.0  .758180394769D-04  .500222085975D-11  .000000000000D+00
     .120000000000D+02 -.443125000000D+02  .503092384389D-08  .195817634515D+01
    -.250898301601D-05  .155622573802D-01  .981800258160D-05  .515373253632D+04
     .792000000000D+05 -.745058059692D-07  .299437085255D+01 -.433996319771D-06
     .932067633867D+00  .175968750000D+03  .120573593254D+01 -.800926218935D-08
     .408231290186D-09  .100000000000D+01  .169700000000D+04  .000000000000D+00
     .240000000000D+01  .000000000000D+00 -.465661287308D-08  .120000000000D+02
     .720060000000D+05  .400000000000D+01
 4 12  7 15 22  0  0.0  .244887080044D-03  .113686837722D-10  .000000000000D+00
     .580000000000D+02  .228125000000D+01  .538772442035D-08 -.127316913116D+01
     .193715095520D-06  .100384014659D-01  .525079667568D-05  .515361647987D+04
     .792000000000D+05  .238418579102D-06 -.210757151434D+01  .102445483208D-06
     .937396045256D+00  .264375000000D+03  .869047134524D+00 -.832677541505D-08
    -.460733477113D-10  .100000000000D+01  .169700000000D+04  .000000000000D+00
     .240000000000D+01  .000000000000D+00 -.605359673500D-08  .580000000000D+02
     .720060000000D+05  .400000000000D+01
 5 12  7 15 22  0  0.0 -.334918498993D-03 -.341060513165D-11  .000000000000D+00
     .680000000000D+02  .145625000000D+02  .463090718159D-08 -.236681608590D+01
     .743195414543D-06  .270947860554D-02  .918842852116D-05  .515370150566D+04
     .792000000000D+05  .111758708954D-07 -.106042559635D+01 -.149011611938D-07
     .950396006368D+00  .197843750000D+03  .204578229756D+00 -.791532970525D-08
    -.525736184737D-09  .100000000000D+01  .169700000000D+04  .000000000000D+00
     .240000000000D+01  .000000000000D+00 -.102445483208D-07  .680000000000D+02
     .720060000000D+05  .400000000000D+01
 6 12  7 15 22  0  0.0  .643264502287D-05 -.511590769747D-11  .000000000000D+00
     .118000000000D+03 -.265312500000D+02  .490449000598D-08 -.245349307363D+01
    -.127591192722D-05  .736367504578D-02  .995397567749D-05  .515369181061D+04
     .792000000000D+05 -.160187482834D-06  .307134563298D+01  .465661287308D-07
     .938905280785D+00  .177375000000D+03 -.491749249136D+00 -.796711757671D-08
     .416445918073D-09  .100000000000D+01  .169700000000D+04  .000000000000D+00
     .240000000000D+01  .000000000000D+00 -.512227416039D-08  .118000000000D+03
     .720060000000D+05  .400000000000D+01
 7 12  7 15 22  0  0.0  .100784935057D-03  .386535248253D-11  .000000000000D+00
     .230000000000D+02  .101562500000D+02  .434589530970D-08  .449552297315D+00
     .566244125366D-06  .567250838503D-02  .141561031342D-05  .515372970581D+04
     .792000000000D+05  .949949026108D-07  .105100262063D+01  .484287738800D-07
     .975740210673D+00  .359593750000D+03 -.302673445671D+01 -.825855828782D-08
     .114290474943D-09  .100000000000D+01  .169700000000D+04  .000000000000D+00
     .240000000000D+01  .000000000000D+00 -.107102096081D-07  .230000000000D+02
     .720060000000D+05  .400000000000D+01
 8 12  7 15 22  0  0.0  .178720802069D-05  .113686837722D-12  .000000000000D+00
     .320000000000D+02 -.512500000000D+01  .392909223389D-08 -.263316374355D+00
    -.145286321640D-06  .124446018599D-01  .185519456863D-05  .515366412735D+04
     .792000000000D+05  .160187482834D-06  .113542274122D+01  .372529029846D-07
     .997946446921D+00  .359812500000D+03 -.295955146536D+01 -.815855412224D-08
     .100718481043D-09  .100000000000D+01  .169700000000D+04  .000000000000D+00
     .240000000000D+01  .000000000000D+00 -.372529029846D-08  .320000000000D+02
     .720060000000D+05  .400000000000D+01
 9 12  7 15 22  0  0.0  .171957071871D-03  .250111042988D-11  .000000000000D+00
     .200000000000D+02  .164375000000D+02  .424339103998D-08 -.265644330524D+00
     .670552253723D-06  .175093689468D-01  .196136534214D-05  .515361344337D+04
     .792000000000D+05 -.288709998131D-06  .102561251727D+01  .689178705215D-07
     .984471768892D+00  .358468750000D+03  .163457087410D+01 -.846963850873D-08
     .187150652719D-09  .100000000000D+01  .169700000000D+04  .000000000000D+00
     .240000000000D+01  .000000000000D+00 -.558793544769D-08  .200000000000D+02
     .720060000000D+05  .400000000000D+01
10 12  7 15 22  0  0.0 -.448897480965D-04 -.136424205266D-11  .000000000000D+00
     .700000000000D+02  .121875000000D+02  .466590863954D-08 -.212615826012D+01
     .609084963799D-06  .113772790646D-01  .882521271706D-05  .515370807648D+04
     .792000000000D+05  .856816768646D-07 -.103913852031D+01 -.115483999252D-06
     .945286949304D+00  .201375000000D+03  .753234616205D+00 -.779711049523D-08
    -.427517807833D-09  .100000000000D+01  .169700000000D+04  .000000000000D+00
     .340000000000D+01  .000000000000D+00 -.232830643654D-08  .700000000000D+02
     .720060000000D+05  .400000000000D+01
